[{"OBJECT_NAME":"STARLINK-1954","OBJECT_ID":"2021-009H","EPOCH":"2026-03-09T23:20:25.352160","MEAN_MOTION":15.30849174,"ECCENTRICITY":0.00046184,"INCLINATION":53.0574,"RA_OF_ASC_NODE":8.8654,"ARG_OF_PERICENTER":103.3293,"MEAN_ANOMALY":256.8222,"EPHEMERIS_TYPE":0,"CLASSIFICATION_TYPE":"U","NORAD_CAT_ID":47555,"ELEMENT_SET_NO":999,"REV_AT_EPOCH":28100,"BSTAR":0.0022371791,"MEAN_MOTION_DOT":0.00067883,"MEAN_MOTION_DDOT":0},{"OBJECT_NAME":"STARLINK-2639","OBJECT_ID":"2021-040J","EPOCH":"2026-03-10T00:00:02.999808","MEAN_MOTION":15.30164085,"ECCENTRICITY":0.00013103,"INCLINATION":53.1581,"RA_OF_ASC_NODE":176.7275,"ARG_OF_PERICENTER":93.8594,"MEAN_ANOMALY":262.6458,"EPHEMERIS_TYPE":0,"CLASSIFICATION_TYPE":"U","NORAD_CAT_ID":48436,"ELEMENT_SET_NO":999,"REV_AT_EPOCH":574,"BSTAR":0.00025256746,"MEAN_MOTION_DOT":7.12e-5,"MEAN_MOTION_DDOT":0}]
